CCSDS_OMM_VERS = 2.0
CREATION_DATE  = 
ORIGINATOR     = 

OBJECT_NAME    = UNKNOWN
OBJECT_ID      = 
CENTER_NAME    = EARTH
REF_FRAME      = TEME
TIME_SYSTEM    = UTC
MEAN_ELEMENT_THEORY = SGP/SGP4

EPOCH          = 2026-03-31T23:14:52.249056
MEAN_MOTION    = 12.98342750
ECCENTRICITY   = .00275367
INCLINATION    = 90.2173
RA_OF_ASC_NODE = 346.0582
ARG_OF_PERICENTER = 216.4243
MEAN_ANOMALY   = 143.5005

EPHEMERIS_TYPE = 0
CLASSIFICATION_TYPE = U
NORAD_CAT_ID   = 270054
ELEMENT_SET_NO = 999
REV_AT_EPOCH   = 30049
BSTAR          = -.4110509E-2
MEAN_MOTION_DOT = -.1202E-4
MEAN_MOTION_DDOT = 0

CCSDS_OMM_VERS = 2.0
CREATION_DATE  = 
ORIGINATOR     = 

OBJECT_NAME    = UNKNOWN
OBJECT_ID      = 
CENTER_NAME    = EARTH
REF_FRAME      = TEME
TIME_SYSTEM    = UTC
MEAN_ELEMENT_THEORY = SGP/SGP4

EPOCH          = 2026-03-19T13:03:20.547648
MEAN_MOTION    = 12.99323055
ECCENTRICITY   = .00290732
INCLINATION    = 90.2513
RA_OF_ASC_NODE = 3.0403
ARG_OF_PERICENTER = 233.7648
MEAN_ANOMALY   = 126.0786

EPHEMERIS_TYPE = 0
CLASSIFICATION_TYPE = U
NORAD_CAT_ID   = 270055
ELEMENT_SET_NO = 999
REV_AT_EPOCH   = 29917
BSTAR          = .28008949E-2
MEAN_MOTION_DOT = .843E-5
MEAN_MOTION_DDOT = 0

CCSDS_OMM_VERS = 2.0
CREATION_DATE  = 
ORIGINATOR     = 

OBJECT_NAME    = UNKNOWN
OBJECT_ID      = 
CENTER_NAME    = EARTH
REF_FRAME      = TEME
TIME_SYSTEM    = UTC
MEAN_ELEMENT_THEORY = SGP/SGP4

EPOCH          = 2026-03-31T23:19:46.982784
MEAN_MOTION    = 12.46242640
ECCENTRICITY   = .00825404
INCLINATION    = 101.5851
RA_OF_ASC_NODE = 187.4732
ARG_OF_PERICENTER = 287.4817
MEAN_ANOMALY   = 71.7243

EPHEMERIS_TYPE = 0
CLASSIFICATION_TYPE = U
NORAD_CAT_ID   = 270056
ELEMENT_SET_NO = 999
REV_AT_EPOCH   = 28856
BSTAR          = .3178278E-2
MEAN_MOTION_DOT = .422E-5
MEAN_MOTION_DDOT = 0

CCSDS_OMM_VERS = 2.0
CREATION_DATE  = 
ORIGINATOR     = 

OBJECT_NAME    = UNKNOWN
OBJECT_ID      = 
CENTER_NAME    = EARTH
REF_FRAME      = TEME
TIME_SYSTEM    = UTC
MEAN_ELEMENT_THEORY = SGP/SGP4

EPOCH          = 2026-03-31T01:31:29.928576
MEAN_MOTION    = 12.96213121
ECCENTRICITY   = .00476757
INCLINATION    = 90.2576
RA_OF_ASC_NODE = 11.5326
ARG_OF_PERICENTER = 359.1697
MEAN_ANOMALY   = 0.9336

EPHEMERIS_TYPE = 0
CLASSIFICATION_TYPE = U
NORAD_CAT_ID   = 270057
ELEMENT_SET_NO = 999
REV_AT_EPOCH   = 30002
BSTAR          = .51645469E-2
MEAN_MOTION_DOT = .1487E-4
MEAN_MOTION_DDOT = 0

CCSDS_OMM_VERS = 2.0
CREATION_DATE  = 
ORIGINATOR     = 

OBJECT_NAME    = UNKNOWN
OBJECT_ID      = 
CENTER_NAME    = EARTH
REF_FRAME      = TEME
TIME_SYSTEM    = UTC
MEAN_ELEMENT_THEORY = SGP/SGP4

EPOCH          = 2026-03-31T23:39:08.127936
MEAN_MOTION    = 12.98016392
ECCENTRICITY   = .00252462
INCLINATION    = 90.2421
RA_OF_ASC_NODE = 3.6247
ARG_OF_PERICENTER = 244.9760
MEAN_ANOMALY   = 114.8740

EPHEMERIS_TYPE = 0
CLASSIFICATION_TYPE = U
NORAD_CAT_ID   = 270058
ELEMENT_SET_NO = 999
REV_AT_EPOCH   = 30052
BSTAR          = .30086744E-2
MEAN_MOTION_DOT = .888E-5
MEAN_MOTION_DDOT = 0

CCSDS_OMM_VERS = 2.0
CREATION_DATE  = 
ORIGINATOR     = 

OBJECT_NAME    = UNKNOWN
OBJECT_ID      = 
CENTER_NAME    = EARTH
REF_FRAME      = TEME
TIME_SYSTEM    = UTC
MEAN_ELEMENT_THEORY = SGP/SGP4

EPOCH          = 2026-03-26T06:40:48.690912
MEAN_MOTION    = 12.23010487
ECCENTRICITY   = .01293165
INCLINATION    = 73.9937
RA_OF_ASC_NODE = 273.9433
ARG_OF_PERICENTER = 249.2769
MEAN_ANOMALY   = 109.4367

EPHEMERIS_TYPE = 0
CLASSIFICATION_TYPE = U
NORAD_CAT_ID   = 270059
ELEMENT_SET_NO = 999
REV_AT_EPOCH   = 28264
BSTAR          = .63814559E-3
MEAN_MOTION_DOT = .55E-6
MEAN_MOTION_DDOT = 0

CCSDS_OMM_VERS = 2.0
CREATION_DATE  = 
ORIGINATOR     = 

OBJECT_NAME    = UNKNOWN
OBJECT_ID      = 
CENTER_NAME    = EARTH
REF_FRAME      = TEME
TIME_SYSTEM    = UTC
MEAN_ELEMENT_THEORY = SGP/SGP4

EPOCH          = 2026-03-29T19:44:33.999936
MEAN_MOTION    = 13.51163922
ECCENTRICITY   = .05402481
INCLINATION    = 30.1079
RA_OF_ASC_NODE = 281.1296
ARG_OF_PERICENTER = 252.1901
MEAN_ANOMALY   = 101.9041

EPHEMERIS_TYPE = 0
CLASSIFICATION_TYPE = U
NORAD_CAT_ID   = 270060
ELEMENT_SET_NO = 999
REV_AT_EPOCH   = 31051
BSTAR          = .99575849E-3
MEAN_MOTION_DOT = .1712E-4
MEAN_MOTION_DDOT = 0

CCSDS_OMM_VERS = 2.0
CREATION_DATE  = 
ORIGINATOR     = 

OBJECT_NAME    = UNKNOWN
OBJECT_ID      = 
CENTER_NAME    = EARTH
REF_FRAME      = TEME
TIME_SYSTEM    = UTC
MEAN_ELEMENT_THEORY = SGP/SGP4

EPOCH          = 2026-04-01T14:02:15.671040
MEAN_MOTION    = 14.24304326
ECCENTRICITY   = .00369437
INCLINATION    = 98.8586
RA_OF_ASC_NODE = 44.6643
ARG_OF_PERICENTER = 104.2130
MEAN_ANOMALY   = 256.3156

EPHEMERIS_TYPE = 0
CLASSIFICATION_TYPE = U
NORAD_CAT_ID   = 270063
ELEMENT_SET_NO = 999
REV_AT_EPOCH   = 32968
BSTAR          = .17051703E-3
MEAN_MOTION_DOT = .352E-5
MEAN_MOTION_DDOT = 0

CCSDS_OMM_VERS = 2.0
CREATION_DATE  = 
ORIGINATOR     = 

OBJECT_NAME    = UNKNOWN
OBJECT_ID      = 
CENTER_NAME    = EARTH
REF_FRAME      = TEME
TIME_SYSTEM    = UTC
MEAN_ELEMENT_THEORY = SGP/SGP4

EPOCH          = 2026-03-28T08:23:21.106176
MEAN_MOTION    = 14.47616257
ECCENTRICITY   = .00118635
INCLINATION    = 97.9782
RA_OF_ASC_NODE = 312.9463
ARG_OF_PERICENTER = 129.1508
MEAN_ANOMALY   = 231.0742

EPHEMERIS_TYPE = 0
CLASSIFICATION_TYPE = U
NORAD_CAT_ID   = 270064
ELEMENT_SET_NO = 999
REV_AT_EPOCH   = 33377
BSTAR          = .14294055E-3
MEAN_MOTION_DOT = .487E-5
MEAN_MOTION_DDOT = 0

CCSDS_OMM_VERS = 2.0
CREATION_DATE  = 
ORIGINATOR     = 

OBJECT_NAME    = UNKNOWN
OBJECT_ID      = 
CENTER_NAME    = EARTH
REF_FRAME      = TEME
TIME_SYSTEM    = UTC
MEAN_ELEMENT_THEORY = SGP/SGP4

EPOCH          = 2026-03-06T08:17:18.140640
MEAN_MOTION    = 12.22972953
ECCENTRICITY   = .01318317
INCLINATION    = 74.0018
RA_OF_ASC_NODE = 300.6153
ARG_OF_PERICENTER = 278.6902
MEAN_ANOMALY   = 79.9220

EPHEMERIS_TYPE = 0
CLASSIFICATION_TYPE = U
NORAD_CAT_ID   = 270065
ELEMENT_SET_NO = 999
REV_AT_EPOCH   = 28014
BSTAR          = -.18840341E-4
MEAN_MOTION_DOT = -.18E-6
MEAN_MOTION_DDOT = 0

CCSDS_OMM_VERS = 2.0
CREATION_DATE  = 
ORIGINATOR     = 

OBJECT_NAME    = UNKNOWN
OBJECT_ID      = 
CENTER_NAME    = EARTH
REF_FRAME      = TEME
TIME_SYSTEM    = UTC
MEAN_ELEMENT_THEORY = SGP/SGP4

EPOCH          = 2026-03-31T03:09:42.640128
MEAN_MOTION    = 14.62967004
ECCENTRICITY   = .00101357
INCLINATION    = 32.2224
RA_OF_ASC_NODE = 28.9619
ARG_OF_PERICENTER = 285.8437
MEAN_ANOMALY   = 74.1093

EPHEMERIS_TYPE = 0
CLASSIFICATION_TYPE = U
NORAD_CAT_ID   = 270066
ELEMENT_SET_NO = 999
REV_AT_EPOCH   = 33907
BSTAR          = .12961632E-3
MEAN_MOTION_DOT = .711E-5
MEAN_MOTION_DDOT = 0

CCSDS_OMM_VERS = 2.0
CREATION_DATE  = 
ORIGINATOR     = 

OBJECT_NAME    = UNKNOWN
OBJECT_ID      = 
CENTER_NAME    = EARTH
REF_FRAME      = TEME
TIME_SYSTEM    = UTC
MEAN_ELEMENT_THEORY = SGP/SGP4

EPOCH          = 2026-03-26T05:31:46.194528
MEAN_MOTION    = 12.96508739
ECCENTRICITY   = .00304936
INCLINATION    = 90.2527
RA_OF_ASC_NODE = 11.9515
ARG_OF_PERICENTER = 340.2786
MEAN_ANOMALY   = 19.7153

EPHEMERIS_TYPE = 0
CLASSIFICATION_TYPE = U
NORAD_CAT_ID   = 270067
ELEMENT_SET_NO = 999
REV_AT_EPOCH   = 29944
BSTAR          = .13132443E-2
MEAN_MOTION_DOT = .384E-5
MEAN_MOTION_DDOT = 0

CCSDS_OMM_VERS = 2.0
CREATION_DATE  = 
ORIGINATOR     = 

OBJECT_NAME    = UNKNOWN
OBJECT_ID      = 
CENTER_NAME    = EARTH
REF_FRAME      = TEME
TIME_SYSTEM    = UTC
MEAN_ELEMENT_THEORY = SGP/SGP4

EPOCH          = 2026-03-23T01:25:33.983904
MEAN_MOTION    = 12.68239641
ECCENTRICITY   = .07675183
INCLINATION    = 73.1628
RA_OF_ASC_NODE = 11.7189
ARG_OF_PERICENTER = 359.6622
MEAN_ANOMALY   = 0.3822

EPHEMERIS_TYPE = 0
CLASSIFICATION_TYPE = U
NORAD_CAT_ID   = 270068
ELEMENT_SET_NO = 999
REV_AT_EPOCH   = 29144
BSTAR          = .38172683E-2
MEAN_MOTION_DOT = .24E-4
MEAN_MOTION_DDOT = 0

CCSDS_OMM_VERS = 2.0
CREATION_DATE  = 
ORIGINATOR     = 

OBJECT_NAME    = UNKNOWN
OBJECT_ID      = 
CENTER_NAME    = EARTH
REF_FRAME      = TEME
TIME_SYSTEM    = UTC
MEAN_ELEMENT_THEORY = SGP/SGP4

EPOCH          = 2026-03-27T11:26:31.779744
MEAN_MOTION    = 13.50487729
ECCENTRICITY   = .07289155
INCLINATION    = 62.7916
RA_OF_ASC_NODE = 164.8410
ARG_OF_PERICENTER = 359.4894
MEAN_ANOMALY   = 0.5308

EPHEMERIS_TYPE = 0
CLASSIFICATION_TYPE = U
NORAD_CAT_ID   = 270070
ELEMENT_SET_NO = 999
REV_AT_EPOCH   = 31140
BSTAR          = .26590541E-3
MEAN_MOTION_DOT = .825E-5
MEAN_MOTION_DDOT = 0

CCSDS_OMM_VERS = 2.0
CREATION_DATE  = 
ORIGINATOR     = 

OBJECT_NAME    = UNKNOWN
OBJECT_ID      = 
CENTER_NAME    = EARTH
REF_FRAME      = TEME
TIME_SYSTEM    = UTC
MEAN_ELEMENT_THEORY = SGP/SGP4

EPOCH          = 2026-04-01T03:52:10.993440
MEAN_MOTION    = 11.27810963
ECCENTRICITY   = .01498398
INCLINATION    = 64.8006
RA_OF_ASC_NODE = 49.9594
ARG_OF_PERICENTER = 43.2784
MEAN_ANOMALY   = 317.9798

EPHEMERIS_TYPE = 0
CLASSIFICATION_TYPE = U
NORAD_CAT_ID   = 270071
ELEMENT_SET_NO = 999
REV_AT_EPOCH   = 26139
BSTAR          = .1025556E-3
MEAN_MOTION_DOT = -.39E-6
MEAN_MOTION_DDOT = 0

CCSDS_OMM_VERS = 2.0
CREATION_DATE  = 
ORIGINATOR     = 

OBJECT_NAME    = UNKNOWN
OBJECT_ID      = 
CENTER_NAME    = EARTH
REF_FRAME      = TEME
TIME_SYSTEM    = UTC
MEAN_ELEMENT_THEORY = SGP/SGP4

EPOCH          = 2026-03-29T22:00:26.919936
MEAN_MOTION    = 11.27764616
ECCENTRICITY   = .01538622
INCLINATION    = 64.8096
RA_OF_ASC_NODE = 63.0857
ARG_OF_PERICENTER = 25.4248
MEAN_ANOMALY   = 335.4146

EPHEMERIS_TYPE = 0
CLASSIFICATION_TYPE = U
NORAD_CAT_ID   = 270072
ELEMENT_SET_NO = 999
REV_AT_EPOCH   = 26106
BSTAR          = .19198977E-3
MEAN_MOTION_DOT = -.36E-6
MEAN_MOTION_DDOT = 0

